47P/Ashbrook-Jackson,e,13.0409,356.9211,357.6746,4.123437,0.1177104,0.31855220,200.8685,02/13.0/2022,2000,g 12.5,4.0
# From MPEC 2021-F20
48P/Johnson,e,12.2041,110.1162,216.6895,3.501055,0.1504547,0.42736314,192.5648,02/13.0/2022,2000,g 12.4,4.0
# From MPEC 2021-F20
49P/Arend-Rigaux,e,19.0470,118.7955,332.9302,3.569710,0.1461351,0.59828966,191.4430,02/13.0/2022,2000,g 13.4,4.0
# From MPEC 2015-S97
50P/Arend,e,19.1006,355.1773,49.3172,4.088249,0.1192334,0.52927160,262.2190,02/13.0/2022,2000,g  9.5,6.0
# From NK 3014
51P-A/Harrington,e,5.4261,83.6755,269.2683,3.707827,0.1380463,0.54351418,327.8428,02/13.0/2022,2000,g 10.0,8.0
# From NK 3013
51P-D/Harrington,e,5.4268,83.6604,269.3067,3.706855,0.1381006,0.54344519,328.1275,02/13.0/2022,2000,g 16.0,8.0
# From MPEC 2022-C56
52P/Harrington-Abell,e,10.2316,336.8379,139.5908,3.864941,0.1297149,0.54017074,16.9681,02/13.0/2022,2000,g 13.5,6.0
# From MPC100283
53P/Van Biesbroeck,e,6.6095,148.8111,134.5015,5.429237,0.0779105,0.55138235,164.7490,02/13.0/2022,2000,g  7.7,4.8
# From MPC 89011
54P/de Vico-Swift-NEAT,e,6.0646,358.8169,1.8124,3.790540,0.1335526,0.42625461,235.3104,02/13.0/2022,2000,g  9.0,4.0
# From MPC 31070
55P/Tempel-Tuttle,e,162.4612,235.4110,172.4880,10.35632,0.0295730,0.90582521,259.9765,02/13.0/2022,2000,g  9.0,4.0
# From MPC101100
56P/Slaughter-Burnham,e,8.1612,345.9952,43.9883,5.068091,0.0863848,0.50796487,175.6522,02/13.0/2022,2000,g  8.5,6.0
# From MPEC 2022-C56
57P/duToit-Neujmin-Delporte,e,2.8515,188.7676,115.2494,3.447367,0.1539830,0.50107402,18.2644,02/13.0/2022,2000,g 12.5,6.0
# From MPEC 2021-O56
58P/Jackson-Neujmin,e,13.1086,159.0747,200.5036,4.086386,0.1193150,0.66280432,74.7327,02/13.0/2022,2000,g 15.5,6.0
# From MPEC 2021-F20
59P/Kearns-Kwee,e,9.3417,312.8228,127.5113,4.485519,0.1037493,0.47546232,129.2041,02/13.0/2022,2000,g  7.0,6.0
# From MPEC 2021-F20
60P/Tsuchinshan,e,3.5840,267.4981,216.9847,3.524656,0.1489460,0.53402396,173.1759,02/13.0/2022,2000,g 11.5,6.0
# From MPEC 2015-Q71
61P/Shajn-Schaldach,e,5.9994,162.9692,221.7547,3.689844,0.1390567,0.42410109,324.8102,02/13.0/2022,2000,g  6.0,10.0
# From MPC109147
62P/Tsuchinshan,e,4.7396,68.9455,47.2987,3.361684,0.1599075,0.62665619,251.3485,02/13.0/2022,2000,g  8.0,10.0
# From MPC 84320
63P/Wild,e,19.7294,358.0190,169.0566,5.608247,0.0742102,0.64900223,240.5357,02/13.0/2022,2000,g 10.5,6.0
# From MPEC 2021-F20
64P/Swift-Gehrels,e,8.9492,299.9701,97.0879,4.453145,0.1048827,0.68827388,125.4787,02/13.0/2022,2000,g 13.4,4.0
# From MPEC 2022-C56
65P/Gunn,e,9.1774,62.0052,213.9029,3.887243,0.1286002,0.24899931,203.1614,02/13.0/2022,2000,g 11.5,4.0
# From MPEC 2021-F20
66P/duToit,e,18.6432,21.8024,257.4358,6.068539,0.0659292,0.78641240,90.0736,02/13.0/2022,2000,g 15.0,4.0
# From MPEC 2022-C56
67P/Churyumov-Gerasimenko,e,3.8716,36.3327,22.1390,3.456005,0.1534061,0.64969850,15.7905,02/13.0/2022,2000,g 11.0,4.0
# From MPC 75716
68P/Klemola,e,11.1110,175.0507,153.1884,4.956036,0.0893310,0.63756182,73.8630,02/13.0/2022,2000,g 10.0,4.0
# From MPC114607
69P/Taylor,e,22.0372,104.8172,343.4120,3.886123,0.1286558,0.41334547,136.7435,02/13.0/2022,2000,g  9.5,12.0
# From MPEC 2022-C56
70P/Kojima,e,6.5979,119.2677,1.8258,3.678273,0.1397134,0.45382189,14.2356,02/13.0/2022,2000,g 11.0,6.0
# From MPEC 2022-C56
71P/Clark,e,9.4375,59.4015,209.0577,3.139446,0.1771840,0.49395839,299.0885,02/13.0/2022,2000,g  9.8,6.0
# From MPC 89011
72P/Denning-Fujikawa,e,10.9464,26.6965,346.7060,4.309523,0.1101692,0.81858214,306.2472,02/13.0/2022,2000,g 17.5,10.0
# From MPC106348
73P/Schwassmann-Wachmann,e,11.2275,69.6146,199.4800,3.092626,0.1812229,0.68539811,324.8975,02/13.0/2022,2000,g 11.5,6.0
# From MPC106348
73P-T/Schwassmann-Wachmann,e,11.2296,69.6171,199.4614,3.094195,0.1810851,0.68560037,324.6526,02/13.0/2022,2000,g 11.5,6.0
# From MPEC 2021-UA9
74P/Smirnova-Chernykh,e,5.9943,63.1165,124.1055,4.438187,0.1054134,0.12813578,142.5790,02/13.0/2022,2000,g  5.0,6.0
# From MPEC 2021-F20
76P/West-Kohoutek-Ikemura,e,30.4670,84.1090,359.9480,3.471689,0.1523677,0.53831016,128.1280,02/13.0/2022,2000,g 15.5,4.0
# From MPEC 2022-C56
77P/Longmore,e,24.3182,14.7724,196.7877,3.623057,0.1429194,0.35190196,300.7917,02/13.0/2022,2000,g  7.0,8.0
# From MPEC 2021-O56
78P/Gehrels,e,6.2538,210.5151,192.6335,3.738111,0.1363722,0.46242572,142.7499,02/13.0/2022,2000,g  5.5,8.0
# From MPC 94675
79P/du Toit-Hartley,e,3.1479,280.5323,281.7793,2.943195,0.1951981,0.61888278,243.9462,02/13.0/2022,2000,g 16.0,4.0
# From MPEC 2014-P41
80P/Peters-Hartley,e,29.9235,259.8057,339.2456,4.024616,0.1220724,0.59867832,323.5174,02/13.0/2022,2000,g  9.0,4.0
# From MPEC 2022-C56
81P/Wild,e,3.2366,136.0991,41.6525,3.452827,0.1536179,0.53711101,313.0443,02/13.0/2022,2000,g  7.0,6.0
# From MPC133426
82P/Gehrels,e,1.1290,239.3119,226.5229,4.134321,0.1172459,0.12178315,155.9534,02/13.0/2022,2000,g 15.0,4.0
# From MPEC 2020-FB5
84P/Giclas,e,7.5510,108.1645,281.5890,3.549575,0.1473803,0.51587940,91.2314,02/13.0/2022,2000,g  9.5,8.0
# From MPC109147
86P/Wild,e,15.4753,72.3558,179.4060,3.601047,0.1442317,0.37222008,0.7785,02/13.0/2022,2000,g 11.0,6.0
# From MPEC 2020-SI8
87P/Bus,e,2.6546,181.2323,26.1414,3.456376,0.1533814,0.39354147,98.2568,02/13.0/2022,2000,g  7.2,10.0
# From MPEC 2022-C56
88P/Howell,e,4.3831,56.6786,235.9152,3.105393,0.1801064,0.56407060,90.8622,02/13.0/2022,2000,g 11.0,6.0
# From MPC100283
89P/Russell,e,12.0699,41.3611,250.3772,3.753923,0.1355115,0.40839534,255.3419,02/13.0/2022,2000,g 11.5,6.0
# From MPC107051
90P/Gehrels,e,9.6499,13.2047,29.0539,6.051779,0.0662033,0.51054219,112.4669,02/13.0/2022,2000,g  8.5,6.0
# From MPEC 2021-S45
91P/Russell,e,14.0762,247.6164,355.2091,3.901313,0.1279051,0.33238142,58.7840,02/13.0/2022,2000,g  7.5,6.0
# From MPEC 2014-J58
92P/Sanguin,e,19.5043,181.3633,163.7778,5.343724,0.0797881,0.66103435,202.3534,02/13.0/2022,2000,g 12.0,6.0
# From NK 2707
93P/Lovas,e,12.2035,339.6471,74.8089,4.381553,0.1074637,0.61302762,194.4477,02/13.0/2022,2000,g  9.0,4.0
# From MPEC 2021-Y10
94P/Russell,e,6.1881,70.8581,92.4460,3.507823,0.1500195,0.36510918,290.6580,02/13.0/2022,2000,g  9.0,6.0
# From MPC 75717
95P/Chiron,e,6.9246,209.2898,339.6127,13.70734,0.0194211,0.37661029,185.2645,02/13.0/2022,2000,g  6.5,2.0
# From MPEC 2017-T14
96P/Machholz,e,57.5190,93.9646,14.7489,3.029187,0.1869454,0.96157590,294.1738,02/13.0/2022,2000,g  9.0,4.0
# From MPEC 2022-C56
97P/Metcalf-Brewington,e,17.9521,184.0782,229.9647,4.759348,0.0949255,0.45996595,359.7598,02/13.0/2022,2000,g  5.5,6.0
# From MPEC 2021-W31
98P/Takamizawa,e,10.5601,114.6955,157.8467,3.796329,0.1332472,0.56227464,53.8601,02/13.0/2022,2000,g  9.0,8.0
# From MPEC 2022-C56
99P/Kowal,e,4.3395,28.1020,174.9395,6.106585,0.0653140,0.22933953,356.1656,02/13.0/2022,2000,g  4.5,6.0
# From MPEC 2013-O31
100P/Hartley,e,25.5647,37.6893,181.9752,3.432704,0.1549707,0.41224320,332.2656,02/13.0/2022,2000,g  9.0,4.0
# From MPEC 2021-W31
101P/Chernykh,e,5.0521,116.2225,277.7201,5.805612,0.0704583,0.59618021,53.7050,02/13.0/2022,2000,g 10.0,4.8
# From MPEC 2022-C56
102P/Shoemaker,e,25.8845,339.3656,20.5833,3.814220,0.1323109,0.45716923,51.1351,02/13.0/2022,2000,g  6.5,8.0
# From MPEC 2018-HA5
103P/Hartley,e,13.6066,219.7399,181.2850,3.475624,0.1521090,0.69351309,267.7254,02/13.0/2022,2000,g  8.5,8.0
# From MPEC 2022-C56
104P/Kowal,e,5.7013,207.2118,227.2582,3.208490,0.1714957,0.66554917,5.5516,02/13.0/2022,2000,g 16.0,4.0
# From MPC109147
105P/Singer Brewster,e,9.1691,192.4035,46.4769,3.468212,0.1525969,0.40913136,195.9436,02/13.0/2022,2000,g 11.5,6.0
# From MPEC 2022-C56
106P/Schuster,e,19.5359,48.8836,353.6805,3.763417,0.1349990,0.59379364,24.0585,02/13.0/2022,2000,g 14.0,4.8
# From MPEC 2015-M77
107P/Wilson-Harrington,e,2.7992,266.7793,95.4381,2.624766,0.2317759,0.63170094,315.3440,02/13.0/2022,2000,g  9.0,4.0
# From MPEC 2022-C56
108P/Ciffreo,e,11.4363,50.2898,354.4300,3.738560,0.1363476,0.55589436,21.2555,02/13.0/2022,2000,g  8.0,12.0
# From  105, 420
109P/Swift-Tuttle,e,113.9411,139.0751,152.9639,26.16558,0.0073639,0.96270818,78.4992,02/13.0/2022,2000,g  4.0,6.0
# From MPEC 2022-C56
110P/Hartley,e,11.7061,287.5351,167.4482,3.602932,0.1441186,0.31840781,16.9605,02/13.0/2022,2000,g  1.0,12.0
# From MPC 75718
111P/Helin-Roman-Crockett,e,4.2263,89.7638,0.9947,4.149018,0.1166235,0.10639159,28.2624,02/13.0/2022,2000,g  5.0,8.0
# From MPEC 2021-S45
112P/Urata-Niijima,e,24.2035,31.8320,21.4726,3.525174,0.1489132,0.59012859,109.5793,02/13.0/2022,2000,g 14.0,6.0
# From MPEC 2022-A21
113P/Spitaler,e,5.2901,306.6811,115.4992,3.691643,0.1389551,0.41984618,344.9378,02/13.0/2022,2000,g 13.5,4.0
# From MPEC 2021-S45
114P/Wiseman-Skiff,e,18.2775,271.0393,172.7540,3.544252,0.1477125,0.55494432,112.3954,02/13.0/2022,2000,g 11.5,6.0
# From MPEC 2021-UA9
115P/Maury,e,11.6774,176.0093,120.9847,4.271790,0.1116321,0.51839339,62.9016,02/13.0/2022,2000,g 10.5,6.0
# From MPEC 2022-C56
116P/Wild,e,3.6034,20.9808,173.3043,3.490689,0.1511254,0.37061149,336.7326,02/13.0/2022,2000,g  2.5,10.0
# From MPEC 2021-W31
117P/Helin-Roman-Alu,e,8.7038,58.8411,222.9215,4.083002,0.1194634,0.25552609,342.7160,02/13.0/2022,2000,g  2.5,8.0
# From MPEC 2021-TD0
118P/Shoemaker-Levy,e,10.0956,142.0967,314.7655,3.349743,0.1607633,0.45381423,314.2895,02/13.0/2022,2000,g 12.0,4.0
# From MPEC 2022-C56
119P/Parker-Hartley,e,7.3932,104.5800,321.9827,3.807077,0.1326834,0.38848620,336.1434,02/13.0/2022,2000,g  3.5,8.0
# From MPEC 2021-Y10
120P/Mueller,e,8.4899,358.6721,36.5992,3.963088,0.1249262,0.37470031,35.1944,02/13.0/2022,2000,g 12.0,4.0
# From MPEC 2021-Y10
121P/Shoemaker-Holt,e,20.1641,94.1183,11.5011,4.583807,0.1004303,0.18593916,309.8055,02/13.0/2022,2000,g  6.5,8.0
# From MPC 75718
122P/de Vico,e,85.1913,79.5992,12.9980,17.62441,0.0133209,0.96226958,128.6013,02/13.0/2022,2000,g  7.5,5.2
# From MPEC 2021-F20
123P/West-Hartley,e,15.2839,45.9964,104.0685,3.877696,0.1290754,0.44549425,142.7295,02/13.0/2022,2000,g 12.2,4.0
# From MPEC 2021-F20
124P/Mrkos,e,31.6337,0.1777,184.4349,3.330510,0.1621579,0.50229883,106.5257,02/13.0/2022,2000,g 15.2,4.0
